[{"OBJECT_NAME":"STARLINK-30846","OBJECT_ID":"2023-170E","EPOCH":"2026-03-09T22:00:01.999584","MEAN_MOTION":15.26732422,"ECCENTRICITY":0.00014288,"INCLINATION":43.0007,"RA_OF_ASC_NODE":193.3919,"ARG_OF_PERICENTER":269.3036,"MEAN_ANOMALY":280.8259,"EPHEMERIS_TYPE":0,"CLASSIFICATION_TYPE":"U","NORAD_CAT_ID":58210,"ELEMENT_SET_NO":999,"REV_AT_EPOCH":572,"BSTAR":0.00080478608,"MEAN_MOTION_DOT":0.00021385,"MEAN_MOTION_DDOT":0},{"OBJECT_NAME":"NUSAT-45 (UZMASAT-1)","OBJECT_ID":"2025-009AH","EPOCH":"2026-03-09T03:44:32.024544","MEAN_MOTION":15.26632732,"ECCENTRICITY":0.00011721,"INCLINATION":97.3985,"RA_OF_ASC_NODE":150.3373,"ARG_OF_PERICENTER":1.4631,"MEAN_ANOMALY":358.6611,"EPHEMERIS_TYPE":0,"CLASSIFICATION_TYPE":"U","NORAD_CAT_ID":62640,"ELEMENT_SET_NO":999,"REV_AT_EPOCH":6363,"BSTAR":0.00048087023,"MEAN_MOTION_DOT":0.00012539,"MEAN_MOTION_DDOT":0}]
